{
  "norad_id": 64015,
  "name": "STARLINK-34093",
  "history": [
    {
      "epoch": "2026-03-28T18:11:11.125824Z",
      "apogee_km": 483.6446154847781,
      "perigee_km": 482.30807060555344,
      "latitude_deg": -1.9118925373763285e-06,
      "longitude_deg": 151.11121460292284,
      "height_km": 482.74971449196426,
      "semi_major_axis_km": 6861.1133430451655,
      "eccentricity": 9.74e-05,
      "inclination_deg": 43.0022,
      "raan_deg": 250.0812,
      "arg_perigee_deg": 270.2751,
      "mean_anomaly_deg": 89.7989,
      "mean_motion_rev_day": 15.27604297
    }
  ]
}