{"fetched_at":"2026-03-30T06:02:59Z","count":15439,"tles":[{"name":"STARLINK-34093","line1":"1 64015U 25101X   26087.75776766  .00022272  00000+0  81584-3 0  9992","line2":"2 64015  43.0022 250.0812 0000974 270.2751  89.7989 15.27604297 49973","category":"Starlink"}]}